ORBCOMM FM115           
1 41186U 15081H   24130.74703767  .00001357  00000+0  31133-3 0  9995
2 41186  46.9977 155.6786 0001191 318.5159  41.5636 14.60655304448753
ORBCOMM FM108           
1 41187U 15081J   24130.51725223  .00001627  00000+0  39904-3 0  9996
2 41187  47.0044 211.0393 0003598 258.5493 101.4988 14.56573414447918
ORBCOMM FM117           
1 41188U 15081K   24130.34582591  .00001584  00000+0  38975-3 0  9996
2 41188  47.0002 210.7399 0004073 268.1853  91.8566 14.56547785447939
ORBCOMM FM116           
1 41189U 15081L   24130.74670318  .00001875  00000+0  45409-3 0  9999
2 41189  47.0021 298.6713 0001771 346.0688  14.0148 14.56574253446808
